satname,norad_id,inclination_deg,eccentricity,mean_motion_rev_per_day,perigee_km,apogee_km,l1,l2
STARLINK-1316,45415,53.1563,0.0004927,15.39560225,444.04587254863236,450.7717653986483,1 45415U 20019BH  26166.94090905  .00046574  00000+0  11692-2 0  9994,2 45415  53.1563  29.7282 0004927 108.0919 252.0623 15.39560225345082
STARLINK-1286,45417,53.0459,0.0001856,15.65009696,371.95782385543316,374.46392418626965,1 45417U 20019BK  26166.85078850  .00050469  00000+0  50661-3 0  9999,2 45417  53.0459  15.0795 0001856 253.9925 106.0885 15.65009696345514
STARLINK-1308,45419,53.0466,0.0006958,15.66599458,363.948246463322,373.3370650322604,1 45419U 20019BM  26166.93274464  .00041506  00000+0  39198-3 0  9993,2 45419  53.0466  33.9872 0006958  71.8228 288.3544 15.66599458345001
STARLINK-1329,45531,53.0424,0.0001535,15.74372086,345.3863581937503,347.45079675603483,1 45531U 20025A   26166.69431118  .00065907  00000+0  44718-3 0  9994,2 45531  53.0424 318.4339 0001535 200.9572 159.1384 15.74372086340829
STARLINK-1338,45532,53.0451,0.0001749,15.68701522,361.4352169876138,363.7931317484081,1 45532U 20025B   26166.68329607  .00046689  00000+0  40444-3 0  9991,2 45532  53.0451 325.4536 0001749 111.2645 248.8558 15.68701522340721
STARLINK-1350,45535,53.0726,0.0001194,15.38403164,450.0154227871253,451.646180298133,1 45535U 20025E   26166.63397915  .00009748  00000+0  26351-3 0  9992,2 45535  53.0726 292.3235 0001194  79.1302 280.9835 15.38403164341222
STARLINK-1362,45538,53.1578,0.0003095,15.38090041,449.64374117508487,453.8714459284929,1 45538U 20025H   26166.86044829  .00044226  00000+0  11659-2 0  9997,2 45538  53.1578   2.5552 0003095 198.2584 161.8309 15.38090041340241
STARLINK-1368,45540,53.1584,0.0003249,15.38192233,449.23615319198143,453.67402213054356,1 45540U 20025K   26166.80817737  .00046474  00000+0  12202-2 0  9992,2 45540  53.1584   3.1634 0003249 170.5069 189.5998 15.38192233340226
STARLINK-1371,45542,53.0455,0.000303,15.63788427,374.67875189425195,378.77219855423755,1 45542U 20025M   26166.74535878  .00103567  00000+0  10778-2 0  9993,2 45542  53.0455 335.1327 0003030 194.0473 166.0457 15.63788427340593
STARLINK-1372,45543,53.157,0.0002276,15.38692762,448.4198413840504,451.5279974745754,1 45543U 20025N   26166.82921893  .00049422  00000+0  12756-2 0  9996,2 45543  53.1570   2.5358 0002276 158.4787 201.6313 15.38692762339330
STARLINK-1373,45544,53.0464,0.0002076,15.70718582,355.4439376261007,358.2403009564305,1 45544U 20025P   26166.69208726  .00052127  00000+0  41463-3 0  9999,2 45544  53.0464 330.5418 0002076  72.7672 287.3572 15.70718582340652
STARLINK-1327,45555,53.0418,0.0003261,15.68015941,362.3800631838358,366.77766246957253,1 45555U 20025AA  26166.68382017  .00046765  00000+0  41652-3 0  9997,2 45555  53.0418 307.8903 0003261  81.1620 278.9765 15.68015941340963
STARLINK-1356,45564,53.0452,0.0002761,15.65827421,368.9967585381755,372.72355476808025,1 45564U 20025AK  26166.71607300  .00019249  00000+0  19107-3 0  9993,2 45564  53.0452 321.0100 0002761 304.8687  55.2068 15.65827421340783
STARLINK-1357,45565,53.0448,0.0003343,15.70411232,355.4690423044385,359.97263685598136,1 45565U 20025AL  26166.59937555  .00054080  00000+0  43535-3 0  9992,2 45565  53.0448 278.0646 0003343 134.2982 225.8309 15.70411232341380
STARLINK-1361,45567,53.0428,0.0003651,15.64254331,372.91843388738107,377.8498550270642,1 45567U 20025AN  26166.97780002  .00099735  00000+0  10197-2 0  9992,2 45567  53.0428 318.1442 0003651 305.5827  54.4846 15.64254331340854
STARLINK-1376,45570,53.1574,0.0002486,15.39043013,447.2407213558208,450.6351430121031,1 45570U 20025AR  26166.73939952  .00047327  00000+0  12084-2 0  9997,2 45570  53.1574 339.3409 0002486 141.5416 218.5766 15.39043013340552
STARLINK-1320,45572,53.039,0.0009546,15.89284556,297.90853811744546,310.6666231267691,1 45572U 20025AT  26166.91668981  .00184417  23331-4  63223-3 0  9991,2 45572  53.0390 214.4355 0009546   3.1199 291.0305 15.89284556  6016
STARLINK-1321,45573,53.0429,0.0001257,15.64830092,372.8787472130771,374.57616593745934,1 45573U 20025AU  26166.66296680  .00040305  00000+0  40910-3 0  9995,2 45573  53.0429 303.5284 0001257 256.7155 103.3719 15.64830092340728
STARLINK-1331,45578,53.0457,4.69e-05,15.64676932,373.85137504691284,374.4847412613681,1 45578U 20025AZ  26166.87932948  .00039158  00000+0  40009-3 0  9990,2 45578  53.0457 309.3883 0000469 122.7590 237.3469 15.64676932340970
STARLINK-1333,45580,53.1575,0.0001053,15.36008123,457.2078926939266,458.64756792612934,1 45580U 20025BB  26166.80246424  .00053061  00000+0  14921-2 0  9995,2 45580  53.1575 340.7257 0001053 188.9941 171.1044 15.36008123340540
STARLINK-1335,45581,53.1551,0.0003243,15.37715901,450.6501040865487,455.0806922419979,1 45581U 20025BC  26166.75839825  .00050091  00000+0  13342-2 0  9999,2 45581  53.1551 337.5573 0003243 164.6855 195.4248 15.37715901340576
STARLINK-1337,45582,53.0449,0.0002644,15.75677987,340.92559247615645,344.47957244736244,1 45582U 20025BD  26166.87510798  .00022798  00000+0  14959-3 0  9997,2 45582  53.0449 298.1220 0002644 113.7804 246.3492 15.75677987341117
STARLINK-1347,45586,53.0384,5.08e-05,15.69478095,360.0481382789576,360.7327726684325,1 45586U 20025BH  26166.57735348  .00051992  00000+0  43541-3 0  9995,2 45586  53.0384 270.4248 0000508 110.0480 250.0591 15.69478095341472
STARLINK-1364,45589,53.0445,0.0001312,15.7024546,357.3110975620939,359.0787110537849,1 45589U 20025BL  26166.64490394  .00052084  00000+0  42254-3 0  9998,2 45589  53.0445 306.7484 0001312 337.6535  22.4425 15.70245460340971
STARLINK-1365,45590,53.0456,0.0001228,15.60472285,385.461205001925,387.1225487340844,1 45590U 20025BM  26166.75358928  .00061276  00000+0  73165-3 0  9996,2 45590  53.0456 340.9356 0001228 136.2147 223.8963 15.60472285340522
STARLINK-1443,45660,53.1336,0.0001749,15.33261071,464.8934170971952,467.287527867069,1 45660U 20035D   26166.74744830  .00050698  00000+0  15564-2 0  9999,2 45660  53.1336 329.8340 0001749  95.0110 265.1091 15.33261071333765
STARLINK-1446,45663,53.0217,0.0001312,15.48141281,421.27145067490255,423.0558495654941,1 45663U 20035G   26166.53643652  .00030589  00000+0  57892-3 0  9997,2 45663  53.0217 252.8933 0001312 249.9265 110.1600 15.48141281334802
STARLINK-1448,45665,53.0438,0.000346,15.69227572,358.7758497177483,363.4394070005719,1 45665U 20035J   26166.80532944  .00051883  00000+0  43894-3 0  9997,2 45665  53.0438 293.3805 0003460 103.4319 256.7084 15.69227572334250
STARLINK-1451,45668,53.0516,0.0001332,15.14623769,521.2018872246717,523.0401159562971,1 45668U 20035M   26166.74806937  .00025592  00000+0  13804-2 0  9994,2 45668  53.0516 341.7377 0001332 136.9224 223.1873 15.14623769333581
STARLINK-1452,45669,53.0252,0.0005807,15.60380925,382.6276544487446,390.4841687963035,1 45669U 20035N   26166.54056034  .00090661  00000+0  10787-2 0  9994,2 45669  53.0252 270.2990 0005807 337.0992  22.9760 15.60380925334567
STARLINK-1453,45670,53.0394,0.0002417,15.69968673,357.3582661638693,360.6149917261009,1 45670U 20035P   26166.76983930  .00059691  00000+0  48866-3 0  9992,2 45670  53.0394 253.8047 0002417 339.4479  20.6439 15.69968673334701
STARLINK-1454,45671,53.0438,0.0002495,15.67587808,364.1238878756931,367.48911568308085,1 45671U 20035Q   26166.62668780  .00051214  00000+0  46345-3 0  9994,2 45671  53.0438 295.5799 0002495  34.7866 325.3312 15.67587808334204
STARLINK-1456,45673,53.0425,0.0002579,15.66394761,367.49027786105034,370.97056997830805,1 45673U 20035S   26166.60000838  .00044243  00000+0  42118-3 0  9996,2 45673  53.0425 290.3548 0002579 191.6340 168.4616 15.66394761334295
STARLINK-1458,45675,53.0458,0.0001587,15.58606478,390.6148917779592,392.76363463390135,1 45675U 20035U   26166.66434449  .00093208  00000+0  11865-2 0  9992,2 45675  53.0458 305.1102 0001587 350.6823   9.4159 15.58606478334057
STARLINK-1460,45676,53.1585,0.000188,15.35830514,457.1694724168856,459.74003091551276,1 45676U 20035V   26166.71391746  .00046327  00000+0  13126-2 0  9993,2 45676  53.1585 328.3395 0001880 214.9120 145.1761 15.35830514333746
STARLINK-1392,45677,53.1538,0.0002001,15.3918016,447.1663634838951,449.89839656978256,1 45677U 20035W   26166.71491034  .00053489  00000+0  13572-2 0  9997,2 45677  53.1538 326.7812 0002001 240.3626 119.7179 15.39180160333807
STARLINK-1394,45679,53.0405,0.0002944,15.66021333,368.31627639807994,372.28975788017124,1 45679U 20035Y   26166.60477839  .00040293  00000+0  39001-3 0  9999,2 45679  53.0405 280.6327 0002944 209.2605 150.8246 15.66021333334423
STARLINK-1402,45685,53.0412,0.0003759,15.59034287,387.90643861444096,392.9950628854549,1 45685U 20035AE  26166.58388390  .00091400  00000+0  11450-2 0  9999,2 45685  53.0412 271.9698 0003759 243.8574 116.2051 15.59034287334554
STARLINK-1404,45686,53.1572,0.0003076,15.45628206,427.4387991249714,431.62687760953486,1 45686U 20035AF  26166.67624007  .00068602  00000+0  13979-2 0  9994,2 45686  53.1572 308.2553 0003076 241.7303 118.3394 15.45628206334060
STARLINK-1413,45689,53.1579,0.0001825,15.35776984,457.3659048241052,459.86131879741606,1 45689U 20035AJ  26166.68804680  .00049446  00000+0  14021-2 0  9999,2 45689  53.1579 313.1100 0001825 261.6874  98.3922 15.35776984333910
STARLINK-1417,45693,53.0497,0.0004142,15.17278123,511.2162760207575,516.9257811516381,1 45693U 20035AN  26166.76742158  .00030784  00000+0  15358-2 0  9993,2 45693  53.0497 328.1648 0004142 164.5508 195.5613 15.17278123333768
STARLINK-1420,45695,53.0462,0.0001897,15.69091237,360.21948636826164,362.77650388541224,1 45695U 20035AQ  26166.54019332  .00049283  00000+0  41973-3 0  9999,2 45695  53.0462 263.9654 0001897 137.5480 222.5683 15.69091237334651
STARLINK-1422,45696,53.1568,0.0001499,15.35813729,457.4797506849345,459.52937582559844,1 45696U 20035AR  26166.69143636  .00009322  00000+0  27420-3 0  9992,2 45696  53.1568 313.0458 0001499 254.3186 105.7652 15.35813729333993
